SWARM A                 
1 39452U 13067B   26189.12219014  .00006668  00000+0  11271-3 0  9996
2 39452  87.3310  48.4587 0003279  95.9654 264.1981 15.51361617709498
SWARM C                 
1 39453U 13067C   26189.12209326  .00006674  00000+0  11283-3 0  9992
2 39453  87.3309  47.0397 0003277  96.1823 263.9811 15.51360826709456
BRITE-CA1 (TORONTO)     
1 40020U 14033L   26188.82868348  .00000770  00000+0  12320-3 0  9993
2 40020  97.9764 317.3791 0077912 209.9563 149.7175 14.72712458645258
OCO 2                   
1 40059U 14035A   26189.16824944  .00000287  00000+0  73662-4 0  9999
2 40059  98.2020 130.1423 0001475  81.9803 278.1563 14.57128529639106
BRITE-PL2 (HEWELIUSZ)   
1 40119U 14049B   26188.85911128  .00001718  00000+0  16367-3 0  9995
2 40119  97.9110 301.0209 0014882  46.1590 314.0857 14.94670588644539
MMS 1                   
1 40482U 15011A   26189.16668980 -.00000678  00000+0  00000+0 0  9996
2 40482  72.3871 348.5429 8302813 167.9373 278.5010  0.28339392  1344
MMS 2                   
1 40483U 15011B   26189.16668980 -.00000678  00000+0  00000+0 0  9997
2 40483  72.3910 348.5419 8305631 167.9403 278.4897  0.28339325  1341
MMS 3                   
1 40484U 15011C   26189.25002315 -.00000682  00000+0  00000+0 0  9997
2 40484  72.3874 348.5516 8303652 167.9512 286.9460  0.28343844  1319
MMS 4                   
1 40485U 15011D   26189.25002315 -.00000682  00000+0  00000+0 0  9998
2 40485  72.3832 348.5350 8303590 167.9611 286.9403  0.28343880  1374
ASTROSAT                
1 40930U 15052A   26189.14781573  .00001443  00000+0  93825-4 0  9993
2 40930   5.9982   4.4658 0008319 331.0948  28.8719 14.82544846582946
DAMPE                   
1 41173U 15078A   26189.15116003  .00000968  00000+0  35050-4 0  9999
2 41173  97.4565 194.7220 0012357  10.4809 349.6687 15.30841251587754
PISAT                   
1 41784U 16059B   26188.91904326  .00000704  00000+0  12728-3 0  9997
2 41784  97.8185 188.4815 0030059 137.1043 223.2515 14.69020500522786
HXMT (HUIYAN)           
1 42758U 17034A   26189.11668630  .00002840  00000+0  14433-3 0  9999
2 42758  43.0144  66.4861 0032747 277.6465  82.0665 15.18644570500840
FLYING LAPTOP           
1 42831U 17042G   26189.18174369  .00002449  00000+0  19415-3 0  9998
2 42831  97.4784 343.9199 0019926  54.6204 305.6879 15.01281935489605
ZHANGHENG 1-01 (CSES-1) 
1 43194U 18015C   26189.19192588  .00004366  00000+0  19884-3 0  9996
2 43194  97.6889 355.2726 0018195 189.8302 170.2580 15.21097101467833
SALSAT                  
1 46495U 20068K   26188.94384156  .00004490  00000+0  15694-3 0  9993
2 46495  97.8859 193.2762 0008470 220.3352 139.7260 15.30102262318532
IXPE                    
1 49954U 21121A   26189.16668980  .00007892  00000+0  41105-3 0  9997
2 49954   0.2280 158.5606 0007114  39.3908 183.0113 15.10449203  5877
