OBJECT_NAME,OBJECT_ID,EPOCH,MEAN_MOTION,ECCENTRICITY,INCLINATION,RA_OF_ASC_NODE,ARG_OF_PERICENTER,MEAN_ANOMALY,EPHEMERIS_TYPE,CLASSIFICATION_TYPE,NORAD_CAT_ID,ELEMENT_SET_NO,REV_AT_EPOCH,BSTAR,MEAN_MOTION_DOT,MEAN_MOTION_DDOT
SWARM A,2013-067B,2026-07-08T02:55:57.228096,15.51361617,.0003279,87.3310,48.4587,95.9654,264.1981,0,U,39452,999,70949,.11271E-3,.6668E-4,0
SWARM C,2013-067C,2026-07-08T02:55:48.857664,15.51360826,.0003277,87.3309,47.0397,96.1823,263.9811,0,U,39453,999,70945,.11283E-3,.6674E-4,0
BRITE-CA1 (TORONTO),2014-033L,2026-07-07T19:53:18.252672,14.72712458,.0077912,97.9764,317.3791,209.9563,149.7175,0,U,40020,999,64525,.1232E-3,.77E-5,0
OCO 2,2014-035A,2026-07-08T04:02:16.751616,14.57128529,.0001475,98.2020,130.1423,81.9803,278.1563,0,U,40059,999,63910,.73662E-4,.287E-5,0
BRITE-PL2 (HEWELIUSZ),2014-049B,2026-07-07T20:37:07.214592,14.94670588,.0014882,97.9110,301.0209,46.1590,314.0857,0,U,40119,999,64453,.16367E-3,.1718E-4,0
MMS 1,2015-011A,2026-07-08T04:00:01.998720,0.28339392,.8302813,72.3871,348.5429,167.9373,278.5010,0,U,40482,999,134,0,-.678E-5,0
MMS 2,2015-011B,2026-07-08T04:00:01.998720,0.28339325,.8305631,72.3910,348.5419,167.9403,278.4897,0,U,40483,999,134,0,-.678E-5,0
MMS 3,2015-011C,2026-07-08T06:00:02.000160,0.28343844,.8303652,72.3874,348.5516,167.9512,286.9460,0,U,40484,999,131,0,-.682E-5,0
MMS 4,2015-011D,2026-07-08T06:00:02.000160,0.28343880,.830359,72.3832,348.5350,167.9611,286.9403,0,U,40485,999,137,0,-.682E-5,0
ASTROSAT,2015-052A,2026-07-08T03:32:51.279072,14.82544846,.0008319,5.9982,4.4658,331.0948,28.8719,0,U,40930,999,58294,.93825E-4,.1443E-4,0
DAMPE,2015-078A,2026-07-08T03:37:40.226592,15.30841251,.0012357,97.4565,194.7220,10.4809,349.6687,0,U,41173,999,58775,.3505E-4,.968E-5,0
PISAT,2016-059B,2026-07-07T22:03:25.337664,14.69020500,.0030059,97.8185,188.4815,137.1043,223.2515,0,U,41784,999,52278,.12728E-3,.704E-5,0
HXMT (HUIYAN),2017-034A,2026-07-08T02:48:01.696320,15.18644570,.0032747,43.0144,66.4861,277.6465,82.0665,0,U,42758,999,50084,.14433E-3,.284E-4,0
FLYING LAPTOP,2017-042G,2026-07-08T04:21:42.654816,15.01281935,.0019926,97.4784,343.9199,54.6204,305.6879,0,U,42831,999,48960,.19415E-3,.2449E-4,0
ZHANGHENG 1-01 (CSES-1),2018-015C,2026-07-08T04:36:22.396032,15.21097101,.0018195,97.6889,355.2726,189.8302,170.2580,0,U,43194,999,46783,.19884E-3,.4366E-4,0
SALSAT,2020-068K,2026-07-07T22:39:07.910784,15.30102262,.000847,97.8859,193.2762,220.3352,139.7260,0,U,46495,999,31853,.15694E-3,.449E-4,0
IXPE,2021-121A,2026-07-08T04:00:01.998720,15.10449203,.0007114,0.2280,158.5606,39.3908,183.0113,0,U,49954,999,587,.41105E-3,.7892E-4,0
